QIANFAN-89              
1 63175U 25046S   26021.50104441  .00000331  00000+0  49403-3 0  9998
2 63175  88.9797 315.9297 0017640  16.2457 343.9256 13.50993455 52778
QIANFAN-90              
1 63176U 25046T   26021.45572412  .00000320  00000+0  47622-3 0  9999
2 63176  88.9797 315.9068 0014551  15.9638 344.1969 13.50992899 52786
QIANFAN-91              
1 66033U 25233A   26021.48846571  .00000111  00000+0  15263-3 0  9999
2 66033  88.9915  58.0584 0001909  90.6901 269.4468 13.50990615 13376
QIANFAN-92              
1 66034U 25233B   26021.42224073  .00048258  00000+0  73999-1 0  9993
2 66034  88.9897  58.0596 0009764 284.3320  75.6747 13.51250389 13367
QIANFAN-93              
1 66035U 25233C   26020.91204642 -.02076796  00000+0 -35542+1 0  9990
2 66035  88.9923  58.1248 0004470 167.7153 192.4106 13.48847336 13299
QIANFAN-94              
1 66036U 25233D   26021.43653390 -.00061924  00000+0 -83189-1 0  9993
2 66036  88.9918  57.9818 0013467 277.1579  82.8046 13.60359535 13410
QIANFAN-95              
1 66037U 25233E   26020.95695606 -.02080997  00000+0 -18493+1 0  9994
2 66037  88.9919  57.6770 0015654 256.9447 102.9978 13.88932766 13540
QIANFAN-96              
1 66038U 25233F   26021.45143109  .00000098  00000+0  13266-3 0  9993
2 66038  88.9918  58.0728 0001846  89.2460 270.8903 13.50991017 13364
